NORAD_CAT_ID,OBJECT_NAME,OBJECT_TYPE,EPOCH,MEAN_MOTION,ECCENTRICITY,INCLINATION,RA_OF_ASC_NODE,ARG_OF_PERICENTER,MEAN_ANOMALY,BSTAR,MEAN_MOTION_DOT,MEAN_MOTION_DDOT,TLE_LINE0,TLE_LINE1,TLE_LINE2,SEMIMAJOR_AXIS,PERIOD,APOGEE,PERIGEE,DECAYED
54164.0,STARLINK-5278,PAYLOAD,2023-01-13 13:30:44,15.08831538,0.0001520999999999,53.2158,131.934,75.113,285.003,0.00031614,4.746e-05,0.0,0 STARLINK-5278,1 54164U 22141H   23013.56300973  .00004746  00000-0  31614-3 0  9991,2 54164  53.2158 131.9340 0001521  75.1130 285.0030 15.08831538 12073,6917.906,95.438,540.823,538.719,0.0
54164.0,STARLINK-5278,PAYLOAD,2023-01-13 18:16:52,15.08851592,0.0001220999999999,53.2145,131.0426,91.764,268.3492,0.00033338,5.023e-05,0.0,0 STARLINK-5278,1 54164U 22141H   23013.76171805  .00005023  00000-0  33338-3 0  9997,2 54164  53.2145 131.0426 0001221  91.7640 268.3492 15.08851592 12104,6917.845,95.437,540.555,538.865,0.0
54164.0,STARLINK-5278,PAYLOAD,2023-01-14 00:38:25,15.08833753,0.0001261,53.2159,129.8525,87.5843,272.5294,3.7411e-05,3.07e-06,0.0,0 STARLINK-5278,1 54164U 22141H   23014.02668782  .00000307  00000-0  37411-4 0  9999,2 54164  53.2159 129.8525 0001261  87.5843 272.5294 15.08833753 12146,6917.899,95.438,540.637,538.8919999999999,0.0
54164.0,STARLINK-5278,PAYLOAD,2023-01-14 16:32:16,15.08848842,0.0001311,53.2153,126.8788,94.5731,265.5411,0.00023569,3.466e-05,0.0,0 STARLINK-5278,1 54164U 22141H   23014.68908075  .00003466  00000-0  23569-3 0  9990,2 54164  53.2153 126.8788 0001311  94.5731 265.5411 15.08848842 12247,6917.853,95.437,540.625,538.811,0.0
54164.0,STARLINK-5278,PAYLOAD,2023-01-15 00:29:13,15.08832998,0.0002066999999999,53.2162,125.392,82.4795,277.6432,4.2872e-06,-2.2e-06,0.0,0 STARLINK-5278,1 54164U 22141H   23015.02029220 -.00000220  00000-0  42872-5 0  9991,2 54164  53.2162 125.3920 0002067  82.4795 277.6432 15.08832998 12291,6917.901999999999,95.438,541.197,538.337,0.0
54164.0,STARLINK-5278,PAYLOAD,2023-01-15 13:12:17,15.08845182,0.0001498,53.2135,123.0151,80.9369,279.1793,1.4437e-06,-2.65e-06,0.0,0 STARLINK-5278,1 54164U 22141H   23015.55020696 -.00000265  00000-0  14437-5 0  9992,2 54164  53.2135 123.0151 0001498  80.9369 279.1793 15.08845182 12374,6917.865,95.437,540.766,538.693,0.0
54164.0,STARLINK-5278,PAYLOAD,2023-01-15 14:47:40,15.08843187,0.0001249,53.2152,122.7169,102.9339,257.1793,0.00013598,1.877e-05,0.0,0 STARLINK-5278,1 54164U 22141H   23015.61644582  .00001877  00000-0  13598-3 0  9999,2 54164  53.2152 122.7169 0001249 102.9339 257.1793 15.08843187 12384,6917.871,95.437,540.6,538.872,0.0
54164.0,STARLINK-5278,PAYLOAD,2023-01-16 11:27:41,15.08843392,0.0001445,53.2151,118.8528,88.8776,271.2382,0.00021141,3.079e-05,0.0,0 STARLINK-5278,1 54164U 22141H   23016.47756876  .00003079  00000-0  21141-3 0  9993,2 54164  53.2151 118.8528 0001445  88.8776 271.2382 15.08843392 12517,6917.87,95.437,540.735,538.735,0.0
54164.0,STARLINK-5278,PAYLOAD,2023-01-16 13:03:04,15.08847582,0.0001328,53.2147,118.5526,98.2552,261.85900000000004,0.00025383,3.755e-05,0.0,0 STARLINK-5278,1 54164U 22141H   23016.54380596  .00003755  00000-0  25383-3 0  9996,2 54164  53.2147 118.5526 0001328  98.2552 261.8590 15.08847582 12526,6917.857,95.437,540.641,538.804,0.0
54164.0,STARLINK-5278,PAYLOAD,2023-01-17 09:43:06,15.08819355,0.0001421,53.2159,114.6887,106.7401,253.3747,-0.00018082,-3.163e-05,0.0,0 STARLINK-5278,1 54164U 22141H   23017.40494166 -.00003163  00000-0 -18082-3 0  9994,2 54164  53.2159 114.6887 0001421 106.7401 253.3747 15.08819355 12659,6917.943,95.439,540.7919999999999,538.825,0.0
54164.0,STARLINK-5278,PAYLOAD,2023-01-17 12:53:53,15.08825584,0.0001469,53.216,114.0937,110.4181,249.6969,-0.00011399,-2.101e-05,0.0,0 STARLINK-5278,1 54164U 22141H   23017.53742043 -.00002101  00000-0 -11399-3 0  9993,2 54164  53.2160 114.0937 0001469 110.4181 249.6969 15.08825584 12677,6917.924,95.438,540.806,538.773,0.0
54164.0,STARLINK-5278,PAYLOAD,2023-01-17 16:04:39,15.08830795,0.000149,53.2156,113.4982,111.3841,248.731,7.4989e-05,9.05e-06,0.0,0 STARLINK-5278,1 54164U 22141H   23017.66989952  .00000905  00000-0  74989-4 0  9992,2 54164  53.2156 113.4982 0001490 111.3841 248.7310 15.08830795 12694,6917.909000000001,95.438,540.804,538.743,0.0
54164.0,STARLINK-5278,PAYLOAD,2023-01-18 12:44:39,15.08883501,0.0001399,53.216,109.6333,108.6013,251.5132,0.0025911,0.0004123999999999,0.0,0 STARLINK-5278,1 54164U 22141H   23018.53101700  .00041240  00000-0  25911-2 0  9992,2 54164  53.2160 109.6333 0001399 108.6013 251.5132 15.08883501 12826,6917.746999999999,95.435,540.58,538.645,0.0
54164.0,STARLINK-5278,PAYLOAD,2023-01-19 06:13:54,15.08866685,0.0001415,53.2163,106.3613,100.3213,259.7939,0.001198,0.00018843,0.0,0 STARLINK-5278,1 54164U 22141H   23019.25965291  .00018843  00000-0  11980-2 0  9999,2 54164  53.2163 106.3613 0001415 100.3213 259.7939 15.08866685 12935,6917.799,95.436,540.643,538.685,0.0
54164.0,STARLINK-5278,PAYLOAD,2023-01-19 09:24:40,15.08856954,0.0001408,53.2161,105.7655,115.4875,244.6263,0.00076324,0.00011885,0.0,0 STARLINK-5278,1 54164U 22141H   23019.39213227  .00011885  00000-0  76324-3 0  9992,2 54164  53.2161 105.7655 0001408 115.4875 244.6263 15.08856954 12958,6917.829000000001,95.436,540.668,538.72,0.0
54164.0,STARLINK-5278,PAYLOAD,2023-01-19 12:35:26,15.08865921,0.0001175,53.2162,105.1725,100.5134,259.599,0.00086712,0.00013549,0.0,0 STARLINK-5278,1 54164U 22141H   23019.52460947  .00013549  00000-0  86712-3 0  9991,2 54164  53.2162 105.1725 0001175 100.5134 259.5990 15.08865921 12973,6917.801,95.436,540.479,538.8530000000001,0.0
54164.0,STARLINK-5278,PAYLOAD,2023-01-20 12:26:13,15.0885911,0.0001181,53.2166,100.7133,103.4095,256.7029,0.0015411,0.00024337,0.0,0 STARLINK-5278,1 54164U 22141H   23020.51821295  .00024337  00000-0  15411-2 0  9993,2 54164  53.2166 100.7133 0001181 103.4095 256.7029 15.08859110 13129,6917.821999999999,95.436,540.504,538.87,0.0
54164.0,STARLINK-5278,PAYLOAD,2023-01-20 23:33:55,15.08849536,0.0001161,53.2172,98.6343,97.3217,262.7907,0.00050932,7.829e-05,0.0,0 STARLINK-5278,1 54164U 22141H   23020.98189210  .00007829  00000-0  50932-3 0  9993,2 54164  53.2172  98.6343 0001161  97.3217 262.7907 15.08849536 13199,6917.851,95.437,540.519,538.913,0.0
54164.0,STARLINK-5278,PAYLOAD,2023-01-21 10:41:37,15.08833827,0.0001225,53.2158,96.5507,93.6942,266.41900000000004,0.00014329,1.993e-05,0.0,0 STARLINK-5278,1 54164U 22141H   23021.44557536  .00001993  00000-0  14329-3 0  9991,2 54164  53.2158  96.5507 0001225  93.6942 266.4190 15.08833827 13266,6917.899,95.438,540.612,538.9169999999999,0.0
54164.0,STARLINK-5278,PAYLOAD,2023-01-21 15:27:46,15.08855226,0.00011,53.2158,95.6575,91.4971,268.6147,0.00078307,0.00012202,0.0,0 STARLINK-5278,1 54164U 22141H   23021.64429014  .00012202  00000-0  78307-3 0  9993,2 54164  53.2158  95.6575 0001100  91.4971 268.6147 15.08855226 13297,6917.834,95.437,540.46,538.938,0.0
54164.0,STARLINK-5278,PAYLOAD,2023-01-22 08:57:01,15.08847032,0.0001691,53.2162,92.3863,125.512,234.603,0.00047541,7.288e-05,0.0,0 STARLINK-5278,1 54164U 22141H   23022.37293300  .00007288  00000-0  47541-3 0  9995,2 54164  53.2162  92.3863 0001691 125.5120 234.6030 15.08847032 13409,6917.859,95.437,540.894,538.554,0.0
54164.0,STARLINK-5278,PAYLOAD,2023-01-22 21:40:06,15.0884463,0.0001048,53.2169,90.0086,106.2789,253.8319,0.00055456,8.55e-05,0.0,0 STARLINK-5278,1 54164U 22141H   23022.90285358  .00008550  00000-0  55456-3 0  9995,2 54164  53.2169  90.0086 0001048 106.2789 253.8319 15.08844630 13483,6917.866,95.437,540.456,539.006,0.0
54164.0,STARLINK-5278,PAYLOAD,2023-01-24 03:52:26,15.0885414,0.0001183,53.2156,84.3576,112.4197,247.692,0.001739,0.00027507,0.0,0 STARLINK-5278,1 54164U 22141H   23024.16142091  .00027507  00000-0  17390-2 0  9998,2 54164  53.2156  84.3576 0001183 112.4197 247.6920 15.08854140 13678,6917.837,95.437,540.521,538.884,0.0
54164.0,STARLINK-5278,PAYLOAD,2023-01-24 10:13:59,15.08845247,0.000148,53.2164,83.1685,118.3633,241.7509,0.00073211,0.00011384,0.0,0 STARLINK-5278,1 54164U 22141H   23024.42637976  .00011384  00000-0  73211-3 0  9999,2 54164  53.2164  83.1685 0001480 118.3633 241.7509 15.08845247 13716,6917.8640000000005,95.437,540.753,538.706,0.0
54164.0,STARLINK-5278,PAYLOAD,2023-01-25 03:43:14,15.08837835,0.0001545,53.2159,79.8975,92.6304,267.4865,0.00051465,7.912e-05,0.0,0 STARLINK-5278,1 54164U 22141H   23025.15502640  .00007912  00000-0  51465-3 0  9998,2 54164  53.2159  79.8975 0001545  92.6304 267.4865 15.08837835 13821,6917.887,95.438,540.821,538.683,0.0
54164.0,STARLINK-5278,PAYLOAD,2023-01-25 10:04:47,15.08833273,0.0001264999999999,53.215,78.7083,85.171,274.9427,0.00010359,1.361e-05,0.0,0 STARLINK-5278,1 54164U 22141H   23025.41998867  .00001361  00000-0  10359-3 0  9996,2 54164  53.2150  78.7083 0001265  85.1710 274.9427 15.08833273 13860,6917.901,95.438,540.641,538.891,0.0
54164.0,STARLINK-5278,PAYLOAD,2023-01-26 03:34:01,15.08844009,0.0001189999999999,53.2157,75.4342,91.8878,268.225,0.00032661,4.915e-05,0.0,0 STARLINK-5278,1 54164U 22141H   23026.14862528  .00004915  00000-0  32661-3 0  9999,2 54164  53.2157  75.4342 0001190  91.8878 268.2250 15.08844009 13976,6917.868,95.437,540.556,538.91,0.0
54164.0,STARLINK-5278,PAYLOAD,2023-01-26 08:20:10,15.08852836,0.0001198,53.2164,74.5423,87.7748,272.3381,0.00037198,5.639e-05,0.0,0 STARLINK-5278,1 54164U 22141H   23026.34734148  .00005639  00000-0  37198-3 0  9991,2 54164  53.2164  74.5423 0001198  87.7748 272.3381 15.08852836 14005,6917.840999999999,95.437,540.535,538.877,0.0
54164.0,STARLINK-5278,PAYLOAD,2023-01-27 03:24:48,15.08842012,0.0001518,53.2189,70.9788,102.0099,258.1064,0.00010578,1.396e-05,0.0,0 STARLINK-5278,1 54164U 22141H   23027.14222339  .00001396  00000-0  10578-3 0  9993,2 54164  53.2189  70.9788 0001518 102.0099 258.1064 15.08842012 14120,6917.874,95.437,540.789,538.689,0.0
